EUTELSAT QUANTUM        
1 49056U 21069B   25334.58626419  .00000147  00000+0  00000+0 0  9990
2 49056   0.0353  60.4926 0003462 202.0984  65.8891  1.00272311 15936
EUTELSAT KONNECT VHTS   
1 53765U 22110A   25334.57733747  .00000038  00000+0  00000+0 0  9991
2 53765   0.0563 108.1250 0002686 117.3097  54.8169  1.00268360  4833
EUTELSAT HOTBIRD 13F    
1 54048U 22134A   25334.57941748  .00000109  00000+0  00000+0 0  9993
2 54048   0.0538 288.4136 0001976  69.7904 293.1023  1.00271172 11383
EUTELSAT HOTBIRD 13G    
1 54225U 22146A   25334.57941748  .00000109  00000+0  00000+0 0  9993
2 54225   0.0466 238.5665 0002100 303.7178 109.0160  1.00270510  5472
EUTELSAT 10B            
1 54259U 22157A   25334.57881081  .00000090  00000+0  00000+0 0  9994
2 54259   0.0570 104.4728 0001051  63.3863 120.2578  1.00268560 11039
EUTELSAT 36D            
1 59346U 24059A   25334.58392418  .00000000  00000+0  00000+0 0  9992
2 59346   0.0197 325.2703 0000543 333.1340  17.3804  1.00270708  6157
